start=new Date('2022-05-31T00:00:00.000Z').valueOf();
sats=[{"MEAN_ELEMENT_THEORY":"SGP4","MEAN_MOTION_DDOT":"0.0000000000000","ECCENTRICITY":"0.00014520","RA_OF_ASC_NODE":"188.2530","NORAD_CAT_ID":"46063","EPOCH":"2022-05-30T10:55:15.099168","PERIOD":"95.592","SITE":"AFETR","CLASSIFICATION_TYPE":"U","TLE_LINE1":"1 46063U 20055AN  22150.45503587 -.00000621  00000-0 -22793-4 0  9996","PERIAPSIS":"546.213","EPHEMERIS_TYPE":"0","RCS_SIZE":"LARGE","ELEMENT_SET_NO":"999","MEAN_ANOMALY":"296.0763","OBJECT_TYPE":"PAYLOAD","LAUNCH_DATE":"2020-08-07","APOAPSIS":"548.224","TIME_SYSTEM":"UTC","INCLINATION":"53.0552","COUNTRY_CODE":"US","MEAN_MOTION_DOT":"-0.00000621","REV_AT_EPOCH":"10114","DECAY_DATE":null,"GP_ID":"204938623","REF_FRAME":"TEME","OBJECT_NAME":"STARLINK-1577","OBJECT_ID":"2020-055AN","TLE_LINE2":"2 46063  53.0552 188.2530 0001452  64.0376 296.0763 15.06398404101146","BSTAR":"-0.00002279300000","MEAN_MOTION":"15.06398404","SEMIMAJOR_AXIS":"6925.353","ARG_OF_PERICENTER":"64.0376","CENTER_NAME":"EARTH","FILE":"3472495"},{"RCS_SIZE":"LARGE","EPHEMERIS_TYPE":"0","INCLINATION":"53.0532","COUNTRY_CODE":"US","APOAPSIS":"548.527","TIME_SYSTEM":"UTC","OBJECT_TYPE":"PAYLOAD","LAUNCH_DATE":"2020-08-07","ELEMENT_SET_NO":"999","MEAN_ANOMALY":"309.9385","PERIAPSIS":"545.997","TLE_LINE1":"1 46064U 20055AP  22150.48822018 -.00003027  00000-0 -18448-3 0  9997","SITE":"AFETR","CLASSIFICATION_TYPE":"U","PERIOD":"95.593","EPOCH":"2022-05-30T11:43:02.223552","MEAN_MOTION_DDOT":"0.0000000000000","MEAN_ELEMENT_THEORY":"SGP4","NORAD_CAT_ID":"46064","RA_OF_ASC_NODE":"188.0981","ECCENTRICITY":"0.00018270","CENTER_NAME":"EARTH","FILE":"3472495","SEMIMAJOR_AXIS":"6925.397","MEAN_MOTION":"15.06384201","ARG_OF_PERICENTER":"50.1764","OBJECT_ID":"2020-055AP","OBJECT_NAME":"STARLINK-1583","BSTAR":"-0.00018448000000","TLE_LINE2":"2 46064  53.0532 188.0981 0001827  50.1764 309.9385 15.06384201101151","DECAY_DATE":null,"REV_AT_EPOCH":"10115","MEAN_MOTION_DOT":"-0.00003027","REF_FRAME":"TEME","GP_ID":"204939874"},{"EPOCH":"2022-05-30T17:55:52.901184","PERIOD":"95.593","RA_OF_ASC_NODE":"166.9299","NORAD_CAT_ID":"46065","ECCENTRICITY":"0.00015830","MEAN_ELEMENT_THEORY":"SGP4","MEAN_MOTION_DDOT":"0.0000000000000","APOAPSIS":"548.357","TIME_SYSTEM":"UTC","COUNTRY_CODE":"US","INCLINATION":"53.0545","MEAN_ANOMALY":"305.7672","ELEMENT_SET_NO":"999","OBJECT_TYPE":"PAYLOAD","LAUNCH_DATE":"2020-08-07","RCS_SIZE":"LARGE","EPHEMERIS_TYPE":"0","TLE_LINE1":"1 46065U 20055AQ  22150.74714006 -.00002599  00000-0 -15571-3 0  9991","PERIAPSIS":"546.164","CLASSIFICATION_TYPE":"U","SITE":"AFETR","TLE_LINE2":"2 46065  53.0545 166.9299 0001583  54.3464 305.7672 15.06384663101453","BSTAR":"-0.00015571000000","OBJECT_ID":"2020-055AQ","OBJECT_NAME":"STARLINK-1515","GP_ID":"204975345","REF_FRAME":"TEME","REV_AT_EPOCH":"10145","DECAY_DATE":null,"MEAN_MOTION_DOT":"-0.00002599","FILE":"3472994","CENTER_NAME":"EARTH","ARG_OF_PERICENTER":"54.3464","SEMIMAJOR_AXIS":"6925.396","MEAN_MOTION":"15.06384663"},{"FILE":"3472994","CENTER_NAME":"EARTH","ARG_OF_PERICENTER":"42.9645","MEAN_MOTION":"15.06392582","SEMIMAJOR_AXIS":"6925.371","TLE_LINE2":"2 46066  53.0541 166.9199 0001822  42.9645 317.1486 15.06392582101469","BSTAR":"-0.00001725400000","OBJECT_NAME":"STARLINK-1525","OBJECT_ID":"2020-055AR","REF_FRAME":"TEME","GP_ID":"204975095","MEAN_MOTION_DOT":"-0.00000539","REV_AT_EPOCH":"10146","DECAY_DATE":null,"MEAN_ANOMALY":"317.1486","ELEMENT_SET_NO":"999","LAUNCH_DATE":"2020-08-07","OBJECT_TYPE":"PAYLOAD","TIME_SYSTEM":"UTC","APOAPSIS":"548.498","INCLINATION":"53.0541","COUNTRY_CODE":"US","EPHEMERIS_TYPE":"0","RCS_SIZE":"LARGE","CLASSIFICATION_TYPE":"U","SITE":"AFETR","TLE_LINE1":"1 46066U 20055AR  22150.75175490 -.00000539  00000-0 -17254-4 0  9994","PERIAPSIS":"545.974","EPOCH":"2022-05-30T18:02:31.623360","PERIOD":"95.593","ECCENTRICITY":"0.00018220","RA_OF_ASC_NODE":"166.9199","NORAD_CAT_ID":"46066","MEAN_ELEMENT_THEORY":"SGP4","MEAN_MOTION_DDOT":"0.0000000000000"},{"FILE":"3472994","CENTER_NAME":"EARTH","ARG_OF_PERICENTER":"58.3699","MEAN_MOTION":"15.06392227","SEMIMAJOR_AXIS":"6925.372","BSTAR":"-0.00000526210000","TLE_LINE2":"2 46067  53.0546 166.8920 0001658  58.3699 301.7451 15.06392227101471","OBJECT_NAME":"STARLINK-1529","OBJECT_ID":"2020-055AS","GP_ID":"204976343","REF_FRAME":"TEME","MEAN_MOTION_DOT":"-0.00000360","DECAY_DATE":null,"REV_AT_EPOCH":"10147","LAUNCH_DATE":"2020-08-07","OBJECT_TYPE":"PAYLOAD","ELEMENT_SET_NO":"999","MEAN_ANOMALY":"301.7451","INCLINATION":"53.0546","COUNTRY_CODE":"US","APOAPSIS":"548.386","TIME_SYSTEM":"UTC","EPHEMERIS_TYPE":"0","RCS_SIZE":"LARGE","SITE":"AFETR","CLASSIFICATION_TYPE":"U","PERIAPSIS":"546.089","TLE_LINE1":"1 46067U 20055AS  22150.75449889 -.00000360  00000-0 -52621-5 0  9991","PERIOD":"95.593","EPOCH":"2022-05-30T18:06:28.704096","ECCENTRICITY":"0.00016580","NORAD_CAT_ID":"46067","RA_OF_ASC_NODE":"166.8920","MEAN_ELEMENT_THEORY":"SGP4","MEAN_MOTION_DDOT":"0.0000000000000"},{"OBJECT_TYPE":"PAYLOAD","LAUNCH_DATE":"2020-08-07","MEAN_ANOMALY":"314.3845","ELEMENT_SET_NO":"999","COUNTRY_CODE":"US","INCLINATION":"53.0543","APOAPSIS":"548.531","TIME_SYSTEM":"UTC","EPHEMERIS_TYPE":"0","RCS_SIZE":"LARGE","CLASSIFICATION_TYPE":"U","SITE":"AFETR","PERIAPSIS":"545.917","TLE_LINE1":"1 46068U 20055AT  22150.76650193 -.00000508  00000-0 -15209-4 0  9999","PERIOD":"95.592","EPOCH":"2022-05-30T18:23:45.766752","ECCENTRICITY":"0.00018870","NORAD_CAT_ID":"46068","RA_OF_ASC_NODE":"166.8434","MEAN_MOTION_DDOT":"0.0000000000000","MEAN_ELEMENT_THEORY":"SGP4","FILE":"3472994","CENTER_NAME":"EARTH","ARG_OF_PERICENTER":"45.7299","MEAN_MOTION":"15.06396620","SEMIMAJOR_AXIS":"6925.359","TLE_LINE2":"2 46068  53.0543 166.8434 0001887  45.7299 314.3845 15.06396620101477","BSTAR":"-0.00001520900000","OBJECT_NAME":"STARLINK-1532","OBJECT_ID":"2020-055AT","REF_FRAME":"TEME","GP_ID":"204976593","MEAN_MOTION_DOT":"-0.00000508","DECAY_DATE":null,"REV_AT_EPOCH":"10147"},{"PERIOD":"95.593","EPOCH":"2022-05-30T18:45:00.151200","ECCENTRICITY":"0.00018930","NORAD_CAT_ID":"46069","RA_OF_ASC_NODE":"166.7780","MEAN_ELEMENT_THEORY":"SGP4","MEAN_MOTION_DDOT":"0.0000000000000","LAUNCH_DATE":"2020-08-07","OBJECT_TYPE":"PAYLOAD","MEAN_ANOMALY":"299.7595","ELEMENT_SET_NO":"999","INCLINATION":"53.0555","COUNTRY_CODE":"US","TIME_SYSTEM":"UTC","APOAPSIS":"548.583","EPHEMERIS_TYPE":"0","RCS_SIZE":"LARGE","SITE":"AFETR","CLASSIFICATION_TYPE":"U","PERIAPSIS":"545.961","TLE_LINE1":"1 46069U 20055AU  22150.78125175 -.00000931  00000-0 -43624-4 0  9991","BSTAR":"-0.00004362400000","TLE_LINE2":"2 46069  53.0555 166.7780 0001893  60.3583 299.7595 15.06381079101481","OBJECT_NAME":"STARLINK-1533","OBJECT_ID":"2020-055AU","GP_ID":"204974846","REF_FRAME":"TEME","MEAN_MOTION_DOT":"-0.00000931","DECAY_DATE":null,"REV_AT_EPOCH":"10148","FILE":"3472994","CENTER_NAME":"EARTH","ARG_OF_PERICENTER":"60.3583","MEAN_MOTION":"15.06381079","SEMIMAJOR_AXIS":"6925.407"},{"TLE_LINE1":"1 46070U 20055AV  22150.33154727 -.00000494  00000-0 -14290-4 0  9990","PERIAPSIS":"546.060","CLASSIFICATION_TYPE":"U","SITE":"AFETR","RCS_SIZE":"LARGE","EPHEMERIS_TYPE":"0","TIME_SYSTEM":"UTC","APOAPSIS":"548.361","INCLINATION":"53.0543","COUNTRY_CODE":"US","MEAN_ANOMALY":"294.7898","ELEMENT_SET_NO":"999","OBJECT_TYPE":"PAYLOAD","LAUNCH_DATE":"2020-08-07","MEAN_ELEMENT_THEORY":"SGP4","MEAN_MOTION_DDOT":"0.0000000000000","RA_OF_ASC_NODE":"168.7989","NORAD_CAT_ID":"46070","ECCENTRICITY":"0.00016610","EPOCH":"2022-05-30T07:57:25.684128","PERIOD":"95.592","SEMIMAJOR_AXIS":"6925.345","MEAN_MOTION":"15.06401015","ARG_OF_PERICENTER":"65.3263","CENTER_NAME":"EARTH","FILE":"3472495","REV_AT_EPOCH":"10141","DECAY_DATE":null,"MEAN_MOTION_DOT":"-0.00000494","GP_ID":"204938374","REF_FRAME":"TEME","OBJECT_ID":"2020-055AV","OBJECT_NAME":"STARLINK-1536","BSTAR":"-0.00001429000000","TLE_LINE2":"2 46070  53.0543 168.7989 0001661  65.3263 294.7898 15.06401015101413"},{"PERIAPSIS":"546.050","TLE_LINE1":"1 46071U 20055AW  22150.74807526 -.00001865  00000-0 -10639-3 0  9993","SITE":"AFETR","CLASSIFICATION_TYPE":"U","RCS_SIZE":"LARGE","EPHEMERIS_TYPE":"0","COUNTRY_CODE":"US","INCLINATION":"53.0557","TIME_SYSTEM":"UTC","APOAPSIS":"548.449","OBJECT_TYPE":"PAYLOAD","LAUNCH_DATE":"2020-08-07","MEAN_ANOMALY":"299.5815","ELEMENT_SET_NO":"999","MEAN_MOTION_DDOT":"0.0000000000000","MEAN_ELEMENT_THEORY":"SGP4","NORAD_CAT_ID":"46071","RA_OF_ASC_NODE":"166.9175","ECCENTRICITY":"0.00017320","PERIOD":"95.593","EPOCH":"2022-05-30T17:57:13.702464","SEMIMAJOR_AXIS":"6925.385","MEAN_MOTION":"15.06388195","ARG_OF_PERICENTER":"60.5347","CENTER_NAME":"EARTH","FILE":"3472994","DECAY_DATE":null,"REV_AT_EPOCH":"10147","MEAN_MOTION_DOT":"-0.00001865","REF_FRAME":"TEME","GP_ID":"204975844","OBJECT_ID":"2020-055AW","OBJECT_NAME":"STARLINK-1538","TLE_LINE2":"2 46071  53.0557 166.9175 0001732  60.5347 299.5815 15.06388195101476","BSTAR":"-0.00010639000000"},{"ARG_OF_PERICENTER":"42.4349","MEAN_MOTION":"15.06387585","SEMIMAJOR_AXIS":"6925.387","FILE":"3472994","CENTER_NAME":"EARTH","REF_FRAME":"TEME","GP_ID":"204976094","MEAN_MOTION_DOT":"-0.00000504","DECAY_DATE":null,"REV_AT_EPOCH":"10146","BSTAR":"-0.00001491700000","TLE_LINE2":"2 46072  53.0543 166.8262 0002098  42.4349 317.6801 15.06387585101463","OBJECT_NAME":"STARLINK-1539","OBJECT_ID":"2020-055AX","SITE":"AFETR","CLASSIFICATION_TYPE":"U","PERIAPSIS":"545.799","TLE_LINE1":"1 46072U 20055AX  22150.77294243 -.00000504  00000-0 -14917-4 0  9996","LAUNCH_DATE":"2020-08-07","OBJECT_TYPE":"PAYLOAD","ELEMENT_SET_NO":"999","MEAN_ANOMALY":"317.6801","INCLINATION":"53.0543","COUNTRY_CODE":"US","APOAPSIS":"548.705","TIME_SYSTEM":"UTC","EPHEMERIS_TYPE":"0","RCS_SIZE":"LARGE","ECCENTRICITY":"0.00020980","NORAD_CAT_ID":"46072","RA_OF_ASC_NODE":"166.8262","MEAN_MOTION_DDOT":"0.0000000000000","MEAN_ELEMENT_THEORY":"SGP4","PERIOD":"95.593","EPOCH":"2022-05-30T18:33:02.225952"}];
